{
  "type": "FeatureCollection",
  "name": "denuncias_activas",
  "crs": {
    "type": "name",
    "properties": {
      "name": "urn:ogc:def:crs:OGC:1.3:CRS84"
    }
  },
  "features": [
    {
      "type": "Feature",
      "geometry": {
        "type": "Point",
        "coordinates": [
          -65.2121873,
          -26.8252296
        ]
      },
      "properties": {
        "id": "PRUEBA4",
        "numero_denuncia": "PRUEBA4",
        "numero_sumario": "NO CONSTA",
        "jurisdiccion": "NO CONSTA",
        "dependencia": "COMISARIA 1",
        "fecha_hecho": "2025-12-12",
        "mes": "NO CONSTA",
        "dia_semana": "NO CONSTA",
        "hora": "NO CONSTA",
        "franja_horaria": "#NO_CONSTA",
        "fecha_registro": "2025-12-15T14:22:21.008838",
        "direccion": "Córdoba 1050, San Miguel de Tucumán, Argentina",
        "lugar": "NO CONSTA",
        "detalle_lugar": "NO CONSTA",
        "tipo_delito": "ROBO",
        "modalidad": "ROBO_ARREBATO",
        "breve_resena": "NO CONSTA",
        "vehiculo_utilizado": "NO CONSTA",
        "vehiculo_descripcion": "NO CONSTA",
        "arma_utilizada": "NO CONSTA",
        "arma_detalle": "NO CONSTA",
        "elemento_sustraido": "NO CONSTA",
        "elemento_detalle": "NO CONSTA",
        "victima_nombre": "NO CONSTA",
        "victima_sexo": "NO CONSTA",
        "victima_edad": "NO CONSTA",
        "victima_dni": "NO CONSTA",
        "victima_direccion": "NO CONSTA",
        "denunciante_nombre": "NO CONSTA",
        "denunciante_sexo": "NO CONSTA",
        "denunciante_edad": "NO CONSTA",
        "denunciante_dni": "NO CONSTA",
        "denunciante_direccion": "NO CONSTA",
        "vinculo_denunciante_victima": "NO CONSTA",
        "causante_nombre": "NO CONSTA",
        "causante_sexo": "NO CONSTA",
        "causante_edad": "NO CONSTA",
        "causante_dni": "NO CONSTA",
        "causante_direccion": "NO CONSTA",
        "causante_descripcion": "NO CONSTA",
        "causante_situacion": "NO CONSTA",
        "requiere_revision": "NO",
        "motivo_revision": "NO CONSTA",
        "color": "#FF0000"
      }
    },
    {
      "type": "Feature",
      "geometry": {
        "type": "Point",
        "coordinates": [
          -65.3998565,
          -27.0560734
        ]
      },
      "properties": {
        "id": "PRUEBA3",
        "numero_denuncia": "PRUEBA3",
        "numero_sumario": "NO CONSTA",
        "jurisdiccion": "NO CONSTA",
        "dependencia": "FAMAILLA",
        "fecha_hecho": "2025-12-10",
        "mes": "NO CONSTA",
        "dia_semana": "NO CONSTA",
        "hora": "NO CONSTA",
        "franja_horaria": "#NO_CONSTA",
        "fecha_registro": "2025-12-15T14:14:24.164377",
        "direccion": "MITRE y MATIENZO, FAMAILLA, Argentina",
        "lugar": "NO CONSTA",
        "detalle_lugar": "NO CONSTA",
        "tipo_delito": "HURTO",
        "modalidad": "HURTO_OPORTUNISTA",
        "breve_resena": "NO CONSTA",
        "vehiculo_utilizado": "NO CONSTA",
        "vehiculo_descripcion": "NO CONSTA",
        "arma_utilizada": "NO CONSTA",
        "arma_detalle": "NO CONSTA",
        "elemento_sustraido": "NO CONSTA",
        "elemento_detalle": "NO CONSTA",
        "victima_nombre": "NO CONSTA",
        "victima_sexo": "NO CONSTA",
        "victima_edad": "NO CONSTA",
        "victima_dni": "NO CONSTA",
        "victima_direccion": "NO CONSTA",
        "denunciante_nombre": "NO CONSTA",
        "denunciante_sexo": "NO CONSTA",
        "denunciante_edad": "NO CONSTA",
        "denunciante_dni": "NO CONSTA",
        "denunciante_direccion": "NO CONSTA",
        "vinculo_denunciante_victima": "NO CONSTA",
        "causante_nombre": "NO CONSTA",
        "causante_sexo": "NO CONSTA",
        "causante_edad": "NO CONSTA",
        "causante_dni": "NO CONSTA",
        "causante_direccion": "NO CONSTA",
        "causante_descripcion": "NO CONSTA",
        "causante_situacion": "NO CONSTA",
        "requiere_revision": "NO",
        "motivo_revision": "NO CONSTA",
        "color": "#0000FF"
      }
    },
    {
      "type": "Feature",
      "geometry": {
        "type": "Point",
        "coordinates": [
          -65.1940854,
          -26.8263773
        ]
      },
      "properties": {
        "id": "prueba5",
        "numero_denuncia": "prueba5",
        "numero_sumario": "NO CONSTA",
        "jurisdiccion": "NO CONSTA",
        "dependencia": "COMISARIA 1",
        "fecha_hecho": "2025-12-14",
        "mes": "NO CONSTA",
        "dia_semana": "NO CONSTA",
        "hora": "NO CONSTA",
        "franja_horaria": "#NO_CONSTA",
        "fecha_registro": "2025-12-16T07:44:39.480328",
        "direccion": "Celedonio Gutiérrez 450, San Miguel de Tucumán, Argentina",
        "lugar": "NO CONSTA",
        "detalle_lugar": "NO CONSTA",
        "tipo_delito": "ROBO",
        "modalidad": "ROBO_AGRAVADO_ASALTANTE",
        "breve_resena": "NO CONSTA",
        "vehiculo_utilizado": "NO CONSTA",
        "vehiculo_descripcion": "NO CONSTA",
        "arma_utilizada": "NO CONSTA",
        "arma_detalle": "NO CONSTA",
        "elemento_sustraido": "NO CONSTA",
        "elemento_detalle": "NO CONSTA",
        "victima_nombre": "NO CONSTA",
        "victima_sexo": "NO CONSTA",
        "victima_edad": "NO CONSTA",
        "victima_dni": "NO CONSTA",
        "victima_direccion": "NO CONSTA",
        "denunciante_nombre": "NO CONSTA",
        "denunciante_sexo": "NO CONSTA",
        "denunciante_edad": "NO CONSTA",
        "denunciante_dni": "NO CONSTA",
        "denunciante_direccion": "NO CONSTA",
        "vinculo_denunciante_victima": "NO CONSTA",
        "causante_nombre": "NO CONSTA",
        "causante_sexo": "NO CONSTA",
        "causante_edad": "NO CONSTA",
        "causante_dni": "NO CONSTA",
        "causante_direccion": "NO CONSTA",
        "causante_descripcion": "NO CONSTA",
        "causante_situacion": "NO CONSTA",
        "requiere_revision": "NO",
        "motivo_revision": "NO CONSTA",
        "color": "#FF0000"
      }
    },
    {
      "type": "Feature",
      "geometry": {
        "type": "Point",
        "coordinates": [
          -65.2030655,
          -26.8113211
        ]
      },
      "properties": {
        "id": "D-567214-2025",
        "numero_denuncia": "D-567214-2025",
        "numero_sumario": "D-567214/2025",
        "jurisdiccion": "SAN MIGUEL DE TUCUMAN",
        "dependencia": "COMISARIA 6",
        "fecha_hecho": "2025-12-15",
        "mes": "DICIEMBRE",
        "dia_semana": "LUNES",
        "hora": "07:30",
        "franja_horaria": "MANANA_(05:00-08:59)",
        "fecha_registro": "2025-12-16T08:34:26.459185",
        "direccion": "BOLIVIA NULL, NULL, SAN MIGUEL DE TUCUMAN, Argentina",
        "lugar": "ESTABLECIMIENTO EDUCATIVO",
        "detalle_lugar": "ESCUELA SECUNDARIA CAMPO NORTE",
        "tipo_delito": "ROBO",
        "modalidad": "ROBO_ESCRUCHE",
        "breve_resena": "EL 15/12/2025, LA DIRECTORA DE LA ESCUELA SECUNDARIA CAMPO NORTE, ANDREA ESTEVEZ, FUE INFORMADA POR PERSONAL AUXILIAR SOBRE LA SUSTRACCIÓN DE 12 VENTILADORES DE PARED MARCA ALPACA DE 18” DE LA SEGUNDA ALA TRAS HABER DAÑOS Y RUPTURAS PARA EL INGRESO A LAS AULAS.",
        "vehiculo_utilizado": "NULL",
        "vehiculo_descripcion": "NULL",
        "arma_utilizada": "NULL",
        "arma_detalle": "NULL",
        "elemento_sustraido": "VENTILADOR",
        "elemento_detalle": "12 VENTILADORES DE PARED MARCA ALPACA DE 18”",
        "victima_nombre": "ESTEVEZ, ANDREA BEATRIZ",
        "victima_sexo": "FEMENINO",
        "victima_edad": "49",
        "victima_dni": "25542136",
        "victima_direccion": "LIDORO QUINTEROS 28",
        "denunciante_nombre": "ESTEVEZ, ANDREA BEATRIZ",
        "denunciante_sexo": "FEMENINO",
        "denunciante_edad": "49",
        "denunciante_dni": "25542136",
        "denunciante_direccion": "LIDORO QUINTEROS 28",
        "vinculo_denunciante_victima": "EL MISMO",
        "causante_nombre": "NULL",
        "causante_sexo": "NULL",
        "causante_edad": "NULL",
        "causante_dni": "NULL",
        "causante_direccion": "NULL",
        "causante_descripcion": "NULL",
        "causante_situacion": "NO IDENTIFICADO",
        "requiere_revision": "SI",
        "motivo_revision": "BREVE RESEÑA EXCEDE 254 CARACTERES (261 chars)",
        "color": "#FF0000"
      }
    },
    {
      "type": "Feature",
      "geometry": {
        "type": "Point",
        "coordinates": [
          -65.2052565,
          -26.8166302
        ]
      },
      "properties": {
        "id": "D-567230-2025",
        "numero_denuncia": "D-567230-2025",
        "numero_sumario": "D-567230/2025",
        "jurisdiccion": "SAN MIGUEL DE TUCUMAN",
        "dependencia": "COMISARIA 6",
        "fecha_hecho": "2025-12-10",
        "mes": "DICIEMBRE",
        "dia_semana": "MIERCOLES",
        "hora": "04:27",
        "franja_horaria": "MADRUGADA_(00:00-04:59)",
        "fecha_registro": "2025-12-16T08:43:29.670857",
        "direccion": "ESPAÑA 1616, SAN MIGUEL DE TUCUMAN, Argentina",
        "lugar": "VIA PUBLICA",
        "detalle_lugar": "ESTACIONADO EN CALLE ESPAÑA 1616, FRENTE AL DOMICILIO DEL DENUNCIANTE",
        "tipo_delito": "ROBO",
        "modalidad": "ROBO_CLAVERO_AUTOS",
        "breve_resena": "EL 10/12/2025 A LAS 04:27, SE SUSTRAJO BATERÍA POWER Y RUEDA DE AUXILIO DE UN CITROEN BERLINGO GRIS (DOMINIO KKK511) ESTACIONADO EN ESPAÑA 1616. UN SUJETO MASCULINO FORZÓ CERRADURAS, CAUSANDO DAÑOS EN EL DISPLAY. EL HECHO FUE FILMADO POR CÁMARA DE UNA VECINA.",
        "vehiculo_utilizado": "AUTO",
        "vehiculo_descripcion": "CITROEN BERLINGO, MODELO 2011, COLOR GRIS, DOMINIO KKK511",
        "arma_utilizada": "NO CONSTA",
        "arma_detalle": "NO CONSTA",
        "elemento_sustraido": "BATERÍA, RUEDA DE AUXILIO",
        "elemento_detalle": "BATERÍA MARCA POWER, RUEDA DE AUXILIO DE CHAPA NEUMÁTICO PIRELLI CRONO",
        "victima_nombre": "GIL, GERARDO JOSE",
        "victima_sexo": "MASCULINO",
        "victima_edad": "35",
        "victima_dni": "34159319",
        "victima_direccion": "ESPAÑA 1616",
        "denunciante_nombre": "GIL, GERARDO JOSE",
        "denunciante_sexo": "MASCULINO",
        "denunciante_edad": "35",
        "denunciante_dni": "34159319",
        "denunciante_direccion": "ESPAÑA 1616",
        "vinculo_denunciante_victima": "EL MISMO",
        "causante_nombre": "NO CONSTA",
        "causante_sexo": "MASCULINO",
        "causante_edad": "NO CONSTA",
        "causante_dni": "NO CONSTA",
        "causante_direccion": "CERCA DE CALLE ITALIA ENTRE THAMES Y ALBERTI",
        "causante_descripcion": "CONTEXTURA DELGADA, TEST MORENA, CABELLO CORTO, SIEMPRE ANDA DE GORRA Y BERMUDAS CLARAS, USUALMENTE TIENE PUESTO UN CHALECO PARA LAS HORAS NOCTURNAS. CUIDA AUTOS SOBRE LA AV. BELGRANO ENTRE LUCAS CÓRDOBA Y 12 DE OCTUBRE Y ANDA EN LA ZONA USUALMENTE.",
        "causante_situacion": "NO IDENTIFICADO",
        "requiere_revision": "SI",
        "motivo_revision": "BREVE RESEÑA EXCEDE 254 CARACTERES (259 chars)",
        "color": "#FF0000"
      }
    },
    {
      "type": "Feature",
      "geometry": {
        "type": "Point",
        "coordinates": [
          -65.2679561,
          -26.8337806
        ]
      },
      "properties": {
        "id": "D-568044-2025",
        "numero_denuncia": "D-568044-2025",
        "numero_sumario": "D-568044/2025",
        "jurisdiccion": "SAN MIGUEL DE TUCUMAN",
        "dependencia": "COMISARIA 2",
        "fecha_hecho": "2025-12-16",
        "mes": "DICIEMBRE",
        "dia_semana": "MARTES",
        "hora": "13:30",
        "franja_horaria": "SIESTA_(13:00-16:59)",
        "fecha_registro": "2025-12-18T07:49:14.392786",
        "direccion": "SAN MARTIN y SALTA, SAN MIGUEL DE TUCUMAN, Argentina",
        "lugar": "TRANSPORTE PUBLICO",
        "detalle_lugar": "EN UN COLECTIVO DE LA LÍNEA 17",
        "tipo_delito": "ROBO",
        "modalidad": "NO CONSTA",
        "breve_resena": "LA DENUNCIANTE, ROSA LILIANA DEL VALLE SOSA, SE ENCONTRABA CIRCULANDO EN UN COLECTIVO DE LA LÍNEA 17 CUANDO, AL LLEGAR A LA INTERSECCIÓN DE CALLE SAN MARTIN Y SALTA, DESCUBRIÓ QUE SU BOLSO HABÍA SIDO CORTADO Y LE HABÍAN SUSTRAÍDO ANTEOJOS PARA LEER Y 70.000 PESOS ARGENTINOS.",
        "vehiculo_utilizado": "NO CONSTA",
        "vehiculo_descripcion": "NO CONSTA",
        "arma_utilizada": "NO CONSTA",
        "arma_detalle": "NO CONSTA",
        "elemento_sustraido": "DINERO, OTROS",
        "elemento_detalle": "MIS ANTEOJOS PARA LEER, EL CUAL ME LO HACE ENTREGA EL PAMI, LA CANTIDAD DE 70.000 (SETENTA MIL PESOS ARGENTINOS)",
        "victima_nombre": "NO CONSTA",
        "victima_sexo": "NO CONSTA",
        "victima_edad": "NO CONSTA",
        "victima_dni": "NO CONSTA",
        "victima_direccion": "NO CONSTA",
        "denunciante_nombre": "SOSA, ROSA LILIANA DEL VALLE",
        "denunciante_sexo": "FEMENINO",
        "denunciante_edad": "65",
        "denunciante_dni": "14226027",
        "denunciante_direccion": "BARRIO EL CRUCE, SAN LUIS 1283",
        "vinculo_denunciante_victima": "EL MISMO",
        "causante_nombre": "NO CONSTA",
        "causante_sexo": "NO CONSTA",
        "causante_edad": "NO CONSTA",
        "causante_dni": "NO CONSTA",
        "causante_direccion": "NO CONSTA",
        "causante_descripcion": "NO CONSTA",
        "causante_situacion": "NO IDENTIFICADO",
        "requiere_revision": "NO",
        "motivo_revision": "NO CONSTA",
        "color": "#FF0000"
      }
    },
    {
      "type": "Feature",
      "geometry": {
        "type": "Point",
        "coordinates": [
          -65.2032949,
          -26.8398794
        ]
      },
      "properties": {
        "id": "D-567845-2025",
        "numero_denuncia": "D-567845-2025",
        "numero_sumario": "D-567845/2025",
        "jurisdiccion": "SAN MIGUEL DE TUCUMAN",
        "dependencia": "COMISARIA 2",
        "fecha_hecho": "2025-12-16",
        "mes": "DICIEMBRE",
        "dia_semana": "MARTES",
        "hora": "22:00",
        "franja_horaria": "NOCHE_(20:00-23:59)",
        "fecha_registro": "2025-12-18T07:53:17.006777",
        "direccion": "LAVALLE 282, SAN MIGUEL DE TUCUMAN, Argentina",
        "lugar": "DOMICILIO",
        "detalle_lugar": "LAVALLE 282 DPTO 3",
        "tipo_delito": "ESTAFA",
        "modalidad": "ESTAFA_TELEFONICA",
        "breve_resena": "DENUNCIANTE Y SU ESPOSA RECIBEN LLAMADA DE WHATSAPP HACIÉNDOSE PASAR POR EMPLEADOS DE EDET Y LUEGO DEL BANCO MACRO, OFRECIENDO DESCUENTOS Y SOLICITANDO DATOS BIOMÉTRICOS. COMO RESULTADO, SE EFECTUÓ UN PRÉSTAMO DE $5.400.000 Y DIVERSAS COMPRAS EN LA CUENTA BANCARIA DEL DENUNCIANTE.",
        "vehiculo_utilizado": "NO CONSTA",
        "vehiculo_descripcion": "NO CONSTA",
        "arma_utilizada": "NO CONSTA",
        "arma_detalle": "NO CONSTA",
        "elemento_sustraido": "DINERO",
        "elemento_detalle": "5.400.000 PESOS Y DIVERSAS COMPRAS DE DIFERENTES MONTOS REALIZADAS CON TARJETA DE CRÉDITO Y ACCESO A CUENTA BANCARIA",
        "victima_nombre": "SARAN, CARLOS JOSE MARIA",
        "victima_sexo": "MASCULINO",
        "victima_edad": "66",
        "victima_dni": "13901543",
        "victima_direccion": "LAVALLE 282 DPTO 3, SAN MIGUEL DE TUCUMAN",
        "denunciante_nombre": "SARAN, CARLOS JOSE MARIA",
        "denunciante_sexo": "MASCULINO",
        "denunciante_edad": "66",
        "denunciante_dni": "13901543",
        "denunciante_direccion": "LAVALLE 282 DPTO 3, SAN MIGUEL DE TUCUMAN",
        "vinculo_denunciante_victima": "EL MISMO",
        "causante_nombre": "NO CONSTA",
        "causante_sexo": "NO CONSTA",
        "causante_edad": "NO CONSTA",
        "causante_dni": "NO CONSTA",
        "causante_direccion": "NO CONSTA",
        "causante_descripcion": "NO CONSTA",
        "causante_situacion": "NO IDENTIFICADO",
        "requiere_revision": "NO",
        "motivo_revision": "NO CONSTA",
        "color": "#FFA500"
      }
    }
  ]
}